OBJECT_NAME,OBJECT_ID,EPOCH,MEAN_MOTION,ECCENTRICITY,INCLINATION,RA_OF_ASC_NODE,ARG_OF_PERICENTER,MEAN_ANOMALY,EPHEMERIS_TYPE,CLASSIFICATION_TYPE,NORAD_CAT_ID,ELEMENT_SET_NO,REV_AT_EPOCH,BSTAR,MEAN_MOTION_DOT,MEAN_MOTION_DDOT
AEROCUBE 18A,2025-052L,2026-07-15T04:26:07.615104,15.24757268,.0005155,97.3932,89.3036,46.7342,313.4325,0,U,63220,999,7416,.1378E-3,.3343E-4,0
TRANSPORTER-13 OBJECT M,2025-052M,2026-07-14T22:47:28.889088,15.22110786,.0004873,97.3853,87.6050,60.9642,299.2082,0,U,63221,999,7406,.87236E-4,.1929E-4,0
AEROCUBE 18B,2025-052N,2026-07-15T03:38:26.664864,15.24658391,.0005692,97.3943,89.2496,49.0160,311.1569,0,U,63222,999,7415,.13185E-3,.3186E-4,0
DROID.002,2025-052P,2026-07-15T03:01:01.932384,15.23008194,.0005416,97.3902,88.5455,56.3274,303.8479,0,U,63223,999,7412,.13802E-3,.3177E-4,0
TOMORROW-S6,2025-052R,2026-07-15T03:58:00.810624,15.22642090,.0006534,97.3979,88.6371,50.7107,309.4708,0,U,63225,999,7410,.10396E-3,.235E-4,0
ETIHAD-SAT,2025-052S,2026-07-15T03:57:32.599296,15.22293301,.0006617,97.3927,88.2383,57.5179,302.6696,0,U,63226,999,7409,.9439E-4,.2105E-4,0
TRANSPORTER-13 OBJECT U,2025-052U,2026-07-15T03:17:35.502144,15.23864753,.0006637,97.3887,88.4829,62.8457,297.3456,0,U,63228,999,7412,.12704E-3,.2995E-4,0
SPACEEYE-T1,2025-052V,2026-07-15T03:03:18.897120,15.22714374,.0006381,97.3918,88.2239,63.8116,296.3776,0,U,63229,999,7409,.11242E-3,.2552E-4,0
ION SCV-017,2025-052W,2026-07-15T03:09:48.197376,15.28015536,.0020433,97.3877,91.0700,314.5353,45.4216,0,U,63230,999,7430,.85713E-4,.228E-4,0
M-SEL/CORTEZ,2025-052X,2026-07-15T03:05:28.623264,15.26559958,.000653,97.3886,89.3612,63.7553,296.4357,0,U,63231,999,7418,.17625E-3,.4538E-4,0
SPHINX/FRAZIER,2025-052Y,2026-07-15T04:02:59.498016,15.24265064,.0007403,97.3918,88.7884,61.4068,298.7913,0,U,63232,999,7413,.13946E-3,.3335E-4,0
LIZZIESAT-3 (LS-3),2025-052Z,2026-07-15T04:04:14.391264,15.21995463,.0007658,97.3881,87.5159,70.6297,289.5766,0,U,63233,999,7406,.11898E-3,.2648E-4,0
TOMORROW-S5,2025-052AA,2026-07-15T03:16:50.619072,15.22686125,.0008378,97.3957,88.3889,62.0914,298.1170,0,U,63234,999,7409,.10739E-3,.2434E-4,0
OTP-2,2025-052AB,2026-07-14T22:22:15.148128,15.24335037,.0008218,97.3836,87.9499,71.7464,288.4667,0,U,63235,999,7409,.1562E-3,.3753E-4,0
ORBASTRO-TR5,2025-052AC,2026-07-14T12:18:29.591136,15.22283318,.00056259,97.3808,86.6843,70.7871,289.3974,0,U,63236,999,7397,.11265259E-3,.2525E-4,0
TEVEL2-9,2025-052AD,2026-07-15T04:06:36.235008,15.32732268,.0007676,97.3907,91.4540,57.3329,302.8652,0,U,63237,999,7431,.29751E-3,.9336E-4,0
TEVEL2-7,2025-052AE,2026-07-15T03:39:30.098016,15.32415280,.0007756,97.3906,91.3390,56.8395,303.3590,0,U,63238,999,7430,.29113E-3,.9043E-4,0
TEVEL2-8,2025-052AF,2026-07-15T03:51:46.384128,15.32400496,.0007797,97.3906,91.3237,57.8563,302.3435,0,U,63239,999,7430,.28216E-3,.8758E-4,0
AL MUNTHER,2025-052AG,2026-07-15T02:59:58.926048,15.32721670,.0008029,97.3850,90.8685,62.6426,297.5632,0,U,63240,999,7429,.30113E-3,.9448E-4,0
TRANSPORTER-13 OBJECT AH,2025-052AH,2026-07-15T04:13:41.907072,15.28231254,.0008569,97.3815,89.3680,68.4892,291.7260,0,U,63241,999,7421,.2264E-3,.6159E-4,0
HERMES-1,2025-052AJ,2026-07-15T04:05:18.143232,15.21822863,.0009122,97.3869,87.2872,87.6584,272.5696,0,U,63242,999,7405,.11661E-3,.2581E-4,0
HERMES-2,2025-052AK,2026-07-14T16:12:09.491040,15.30496006,.00055067,97.3867,90.4557,40.7179,319.4472,0,U,63243,999,7422,.24530503E-3,.716E-4,0
PANDORE,2025-052AL,2026-07-15T03:05:18.860928,14.95148942,.0006467,97.6869,86.9325,97.7854,262.4102,0,U,63244,999,7278,.12619E-3,.1329E-4,0
BUCCANEER MM,2025-052AM,2026-07-15T03:34:08.937120,14.94810371,.0005444,97.6831,86.5847,111.2490,248.9313,0,U,63245,999,7277,.99739E-4,.1029E-4,0
LEMUR-2-LEIA-PHILIP,2025-052AN,2026-07-14T22:28:04.831392,14.97391318,.0005096,97.6806,87.4167,119.8953,240.2776,0,U,63246,999,7282,.21592E-4,.193E-5,0
EZIE-A,2025-052AP,2026-07-15T04:16:55.068096,14.97551374,.0005013,97.6863,87.8928,100.6256,259.5531,0,U,63247,999,7285,.2276E-3,.2599E-4,0
LEMUR-2-LIA-MARTIN,2025-052AQ,2026-07-15T03:08:57.429600,14.98029975,.0005305,97.6870,88.1270,90.0857,270.0973,0,U,63248,999,7286,.18314E-3,.2106E-4,0
EZIE-C,2025-052AR,2026-07-15T04:10:13.462752,14.97479874,.0004786,97.6839,87.7723,109.9357,250.2381,0,U,63249,999,7285,.20449E-3,.2325E-4,0
EZIE-B,2025-052AS,2026-07-15T04:03:56.102976,14.97408015,.0005343,97.6865,87.9445,96.4684,263.7147,0,U,63250,999,7285,.19268E-3,.2183E-4,0
UVSQ-SAT NG,2025-052AT,2026-07-15T03:53:40.780320,14.95505498,.000423,97.6818,87.0719,117.1895,242.9757,0,U,63251,999,7281,.10716E-3,.113E-4,0
