AEROCUBE 18A            
1 63220U 25052L   26196.18481036  .00003343  00000+0  13780-3 0  9996
2 63220  97.3932  89.3036 0005155  46.7342 313.4325 15.24757268 74165
TRANSPORTER-13 OBJECT M 
1 63221U 25052M   26195.94963992  .00001929  00000+0  87236-4 0  9992
2 63221  97.3853  87.6050 0004873  60.9642 299.2082 15.22110786 74068
AEROCUBE 18B            
1 63222U 25052N   26196.15169751  .00003186  00000+0  13185-3 0  9996
2 63222  97.3943  89.2496 0005692  49.0160 311.1569 15.24658391 74159
DROID.002               
1 63223U 25052P   26196.12571681  .00003177  00000+0  13802-3 0  9999
2 63223  97.3902  88.5455 0005416  56.3274 303.8479 15.23008194 74127
TOMORROW-S6             
1 63225U 25052R   26196.16528716  .00002350  00000+0  10396-3 0  9993
2 63225  97.3979  88.6371 0006534  50.7107 309.4708 15.22642090 74109
ETIHAD-SAT              
1 63226U 25052S   26196.16496064  .00002105  00000+0  94390-4 0  9999
2 63226  97.3927  88.2383 0006617  57.5179 302.6696 15.22293301 74094
TRANSPORTER-13 OBJECT U 
1 63228U 25052U   26196.13721646  .00002995  00000+0  12704-3 0  9990
2 63228  97.3887  88.4829 0006637  62.8457 297.3456 15.23864753 74122
SPACEEYE-T1             
1 63229U 25052V   26196.12730205  .00002552  00000+0  11242-3 0  9996
2 63229  97.3918  88.2239 0006381  63.8116 296.3776 15.22714374 74092
ION SCV-017             
1 63230U 25052W   26196.13180784  .00002280  00000+0  85713-4 0  9993
2 63230  97.3877  91.0700 0020433 314.5353  45.4216 15.28015536 74302
M-SEL/CORTEZ            
1 63231U 25052X   26196.12880351  .00004538  00000+0  17625-3 0  9994
2 63231  97.3886  89.3612 0006530  63.7553 296.4357 15.26559958 74181
SPHINX/FRAZIER          
1 63232U 25052Y   26196.16874419  .00003335  00000+0  13946-3 0  9993
2 63232  97.3918  88.7884 0007403  61.4068 298.7913 15.24265064 74136
LIZZIESAT-3 (LS-3)      
1 63233U 25052Z   26196.16961101  .00002648  00000+0  11898-3 0  9999
2 63233  97.3881  87.5159 0007658  70.6297 289.5766 15.21995463 74062
TOMORROW-S5             
1 63234U 25052AA  26196.13669698  .00002434  00000+0  10739-3 0  9999
2 63234  97.3957  88.3889 0008378  62.0914 298.1170 15.22686125 74098
OTP-2                   
1 63235U 25052AB  26195.93211977  .00003753  00000+0  15620-3 0  9999
2 63235  97.3836  87.9499 0008218  71.7464 288.4667 15.24335037 74095
ORBASTRO-TR5            
1 63236U 25052AC  26195.51284249  .00002525  00000+0  11265-3 0  9993
2 63236  97.3808  86.6843 0005625  70.7871 289.3974 15.22283318 73973
TEVEL2-9                
1 63237U 25052AD  26196.17125272  .00009336  00000+0  29751-3 0  9993
2 63237  97.3907  91.4540 0007676  57.3329 302.8652 15.32732268 74316
TEVEL2-7                
1 63238U 25052AE  26196.15243169  .00009043  00000+0  29113-3 0  9995
2 63238  97.3906  91.3390 0007756  56.8395 303.3590 15.32415280 74302
TEVEL2-8                
1 63239U 25052AF  26196.16095352  .00008758  00000+0  28216-3 0  9991
2 63239  97.3906  91.3237 0007797  57.8563 302.3435 15.32400496 74306
AL MUNTHER              
1 63240U 25052AG  26196.12498757  .00009448  00000+0  30113-3 0  9991
2 63240  97.3850  90.8685 0008029  62.6426 297.5632 15.32721670 74290
TRANSPORTER-13 OBJECT AH
1 63241U 25052AH  26196.17617948  .00006159  00000+0  22640-3 0  9994
2 63241  97.3815  89.3680 0008569  68.4892 291.7260 15.28231254 74214
HERMES-1                
1 63242U 25052AJ  26196.17034888  .00002581  00000+0  11661-3 0  9997
2 63242  97.3869  87.2872 0009122  87.6584 272.5696 15.21822863 74058
HERMES-2                
1 63243U 25052AK  26195.67510985  .00007160  00000+0  24531-3 0  9997
2 63243  97.3867  90.4557 0005506  40.7179 319.4472 15.30496006 74223
PANDORE                 
1 63244U 25052AL  26196.12869052  .00001329  00000+0  12619-3 0  9996
2 63244  97.6869  86.9325 0006467  97.7854 262.4102 14.95148942 72780
BUCCANEER MM            
1 63245U 25052AM  26196.14871455  .00001029  00000+0  99739-4 0  9995
2 63245  97.6831  86.5847 0005444 111.2490 248.9313 14.94810371 72770
LEMUR-2-LEIA-PHILIP     
1 63246U 25052AN  26195.93616703  .00000193  00000+0  21592-4 0  9998
2 63246  97.6806  87.4167 0005096 119.8953 240.2776 14.97391318 72821
EZIE-A                  
1 63247U 25052AP  26196.17841514  .00002599  00000+0  22760-3 0  9995
2 63247  97.6863  87.8928 0005013 100.6256 259.5531 14.97551374 72852
LEMUR-2-LIA-MARTIN      
1 63248U 25052AQ  26196.13122025  .00002106  00000+0  18314-3 0  9995
2 63248  97.6870  88.1270 0005305  90.0857 270.0973 14.98029975 72865
EZIE-C                  
1 63249U 25052AR  26196.17376693  .00002325  00000+0  20449-3 0  9997
2 63249  97.6839  87.7723 0004786 109.9357 250.2381 14.97479874 72854
EZIE-B                  
1 63250U 25052AS  26196.16939934  .00002183  00000+0  19268-3 0  9990
2 63250  97.6865  87.9445 0005343  96.4684 263.7147 14.97408015 72859
UVSQ-SAT NG             
1 63251U 25052AT  26196.16227755  .00001130  00000+0  10716-3 0  9992
2 63251  97.6818  87.0719 0004230 117.1895 242.9757 14.95505498 72815
